ORBCOMM FM33            
1 25983U 99065D   24249.29699023  .00004045  00000+0  13632-2 0  9996
2 25983  45.0274 271.8543 0006724  55.6853 304.4631 14.38269334295024
ORBCOMM FM36            
1 25984U 99065E   24249.57720354  .00005642  00000+0  19611-2 0  9997
2 25984  45.0411 358.0194 0004350 280.3445  79.6912 14.36248011293472
ORBCOMM FM35            
1 25985U 99065F   24249.45136331  .00004060  00000+0  14426-2 0  9993
2 25985  45.0413   1.7132 0001482  55.5664 304.5323 14.35640815293841
ORBCOMM FM34            
1 25986U 99065G   24249.56279444  .00004513  00000+0  15981-2 0  9999
2 25986  45.0407   1.7369 0002849 324.4456  35.6201 14.35639200293979
ORBCOMM FM38            
1 33060U 08031A   24249.33632405  .00007842  00000+0  10893-2 0  9994
2 33060  48.4390 230.2354 0005522 262.5622  97.4665 14.78510579872551
ORBCOMM FM41            
1 33061U 08031B   24249.35126510  .00007614  00000+0  10656-2 0  9996
2 33061  48.4424 237.0680 0004616 249.8247 188.8718 14.78226123872059
ORBCOMM FM29            
1 33062U 08031C   24249.35475976  .00007596  00000+0  10641-2 0  9993
2 33062  48.4376 245.0801 0006431 247.2360 249.7496 14.78187068871968
ORBCOMM FM39            
1 33063U 08031D   24249.51385117  .00006076  00000+0  87961-3 0  9991
2 33063  48.4389 265.7841 0007206 222.6696 137.3659 14.77072878871678
