<?xml version="1.0" encoding="UTF-8"?>
<ndm xmlns:xsi="http://www.w3.org/2001/XMLSchema-instance" xsi:noNamespaceSchemaLocation="https://sanaregistry.org/r/ndmxml_unqualified/ndmxml-2.0.0-master-2.0.xsd">
<omm id="CCSDS_OMM_VERS" version="2.0">
<header><CREATION_DATE/><ORIGINATOR/></header><body><segment><metadata><OBJECT_NAME>ORBCOMM FM33</OBJECT_NAME><OBJECT_ID>1999-065D</OBJECT_ID><CENTER_NAME>EARTH</CENTER_NAME><REF_FRAME>TEME</REF_FRAME><TIME_SYSTEM>UTC</TIME_SYSTEM><MEAN_ELEMENT_THEORY>SGP4</MEAN_ELEMENT_THEORY></metadata><data><meanElements><EPOCH>2024-09-05T07:07:39.955872</EPOCH><MEAN_MOTION>14.38269334</MEAN_MOTION><ECCENTRICITY>.0006724</ECCENTRICITY><INCLINATION>45.0274</INCLINATION><RA_OF_ASC_NODE>271.8543</RA_OF_ASC_NODE><ARG_OF_PERICENTER>55.6853</ARG_OF_PERICENTER><MEAN_ANOMALY>304.4631</MEAN_ANOMALY></meanElements><tleParameters><EPHEMERIS_TYPE>0</EPHEMERIS_TYPE><CLASSIFICATION_TYPE>U</CLASSIFICATION_TYPE><NORAD_CAT_ID>25983</NORAD_CAT_ID><ELEMENT_SET_NO>999</ELEMENT_SET_NO><REV_AT_EPOCH>29502</REV_AT_EPOCH><BSTAR>.13632E-2</BSTAR><MEAN_MOTION_DOT>.4045E-4</MEAN_MOTION_DOT><MEAN_MOTION_DDOT>0</MEAN_MOTION_DDOT></tleParameters></data></segment></body></omm>
<omm id="CCSDS_OMM_VERS" version="2.0">
<header><CREATION_DATE/><ORIGINATOR/></header><body><segment><metadata><OBJECT_NAME>ORBCOMM FM36</OBJECT_NAME><OBJECT_ID>1999-065E</OBJECT_ID><CENTER_NAME>EARTH</CENTER_NAME><REF_FRAME>TEME</REF_FRAME><TIME_SYSTEM>UTC</TIME_SYSTEM><MEAN_ELEMENT_THEORY>SGP4</MEAN_ELEMENT_THEORY></metadata><data><meanElements><EPOCH>2024-09-05T13:51:10.385856</EPOCH><MEAN_MOTION>14.36248011</MEAN_MOTION><ECCENTRICITY>.000435</ECCENTRICITY><INCLINATION>45.0411</INCLINATION><RA_OF_ASC_NODE>358.0194</RA_OF_ASC_NODE><ARG_OF_PERICENTER>280.3445</ARG_OF_PERICENTER><MEAN_ANOMALY>79.6912</MEAN_ANOMALY></meanElements><tleParameters><EPHEMERIS_TYPE>0</EPHEMERIS_TYPE><CLASSIFICATION_TYPE>U</CLASSIFICATION_TYPE><NORAD_CAT_ID>25984</NORAD_CAT_ID><ELEMENT_SET_NO>999</ELEMENT_SET_NO><REV_AT_EPOCH>29347</REV_AT_EPOCH><BSTAR>.19611E-2</BSTAR><MEAN_MOTION_DOT>.5642E-4</MEAN_MOTION_DOT><MEAN_MOTION_DDOT>0</MEAN_MOTION_DDOT></tleParameters></data></segment></body></omm>
<omm id="CCSDS_OMM_VERS" version="2.0">
<header><CREATION_DATE/><ORIGINATOR/></header><body><segment><metadata><OBJECT_NAME>ORBCOMM FM35</OBJECT_NAME><OBJECT_ID>1999-065F</OBJECT_ID><CENTER_NAME>EARTH</CENTER_NAME><REF_FRAME>TEME</REF_FRAME><TIME_SYSTEM>UTC</TIME_SYSTEM><MEAN_ELEMENT_THEORY>SGP4</MEAN_ELEMENT_THEORY></metadata><data><meanElements><EPOCH>2024-09-05T10:49:57.789984</EPOCH><MEAN_MOTION>14.35640815</MEAN_MOTION><ECCENTRICITY>.0001482</ECCENTRICITY><INCLINATION>45.0413</INCLINATION><RA_OF_ASC_NODE>1.7132</RA_OF_ASC_NODE><ARG_OF_PERICENTER>55.5664</ARG_OF_PERICENTER><MEAN_ANOMALY>304.5323</MEAN_ANOMALY></meanElements><tleParameters><EPHEMERIS_TYPE>0</EPHEMERIS_TYPE><CLASSIFICATION_TYPE>U</CLASSIFICATION_TYPE><NORAD_CAT_ID>25985</NORAD_CAT_ID><ELEMENT_SET_NO>999</ELEMENT_SET_NO><REV_AT_EPOCH>29384</REV_AT_EPOCH><BSTAR>.14426E-2</BSTAR><MEAN_MOTION_DOT>.406E-4</MEAN_MOTION_DOT><MEAN_MOTION_DDOT>0</MEAN_MOTION_DDOT></tleParameters></data></segment></body></omm>
<omm id="CCSDS_OMM_VERS" version="2.0">
<header><CREATION_DATE/><ORIGINATOR/></header><body><segment><metadata><OBJECT_NAME>ORBCOMM FM34</OBJECT_NAME><OBJECT_ID>1999-065G</OBJECT_ID><CENTER_NAME>EARTH</CENTER_NAME><REF_FRAME>TEME</REF_FRAME><TIME_SYSTEM>UTC</TIME_SYSTEM><MEAN_ELEMENT_THEORY>SGP4</MEAN_ELEMENT_THEORY></metadata><data><meanElements><EPOCH>2024-09-05T13:30:25.439616</EPOCH><MEAN_MOTION>14.35639200</MEAN_MOTION><ECCENTRICITY>.0002849</ECCENTRICITY><INCLINATION>45.0407</INCLINATION><RA_OF_ASC_NODE>1.7369</RA_OF_ASC_NODE><ARG_OF_PERICENTER>324.4456</ARG_OF_PERICENTER><MEAN_ANOMALY>35.6201</MEAN_ANOMALY></meanElements><tleParameters><EPHEMERIS_TYPE>0</EPHEMERIS_TYPE><CLASSIFICATION_TYPE>U</CLASSIFICATION_TYPE><NORAD_CAT_ID>25986</NORAD_CAT_ID><ELEMENT_SET_NO>999</ELEMENT_SET_NO><REV_AT_EPOCH>29397</REV_AT_EPOCH><BSTAR>.15981E-2</BSTAR><MEAN_MOTION_DOT>.4513E-4</MEAN_MOTION_DOT><MEAN_MOTION_DDOT>0</MEAN_MOTION_DDOT></tleParameters></data></segment></body></omm>
<omm id="CCSDS_OMM_VERS" version="2.0">
<header><CREATION_DATE/><ORIGINATOR/></header><body><segment><metadata><OBJECT_NAME>ORBCOMM FM38</OBJECT_NAME><OBJECT_ID>2008-031A</OBJECT_ID><CENTER_NAME>EARTH</CENTER_NAME><REF_FRAME>TEME</REF_FRAME><TIME_SYSTEM>UTC</TIME_SYSTEM><MEAN_ELEMENT_THEORY>SGP4</MEAN_ELEMENT_THEORY></metadata><data><meanElements><EPOCH>2024-09-05T08:04:18.397920</EPOCH><MEAN_MOTION>14.78510579</MEAN_MOTION><ECCENTRICITY>.0005522</ECCENTRICITY><INCLINATION>48.4390</INCLINATION><RA_OF_ASC_NODE>230.2354</RA_OF_ASC_NODE><ARG_OF_PERICENTER>262.5622</ARG_OF_PERICENTER><MEAN_ANOMALY>97.4665</MEAN_ANOMALY></meanElements><tleParameters><EPHEMERIS_TYPE>0</EPHEMERIS_TYPE><CLASSIFICATION_TYPE>U</CLASSIFICATION_TYPE><NORAD_CAT_ID>33060</NORAD_CAT_ID><ELEMENT_SET_NO>999</ELEMENT_SET_NO><REV_AT_EPOCH>87255</REV_AT_EPOCH><BSTAR>.10893E-2</BSTAR><MEAN_MOTION_DOT>.7842E-4</MEAN_MOTION_DOT><MEAN_MOTION_DDOT>0</MEAN_MOTION_DDOT></tleParameters></data></segment></body></omm>
<omm id="CCSDS_OMM_VERS" version="2.0">
<header><CREATION_DATE/><ORIGINATOR/></header><body><segment><metadata><OBJECT_NAME>ORBCOMM FM41</OBJECT_NAME><OBJECT_ID>2008-031B</OBJECT_ID><CENTER_NAME>EARTH</CENTER_NAME><REF_FRAME>TEME</REF_FRAME><TIME_SYSTEM>UTC</TIME_SYSTEM><MEAN_ELEMENT_THEORY>SGP4</MEAN_ELEMENT_THEORY></metadata><data><meanElements><EPOCH>2024-09-05T08:25:49.304640</EPOCH><MEAN_MOTION>14.78226123</MEAN_MOTION><ECCENTRICITY>.0004616</ECCENTRICITY><INCLINATION>48.4424</INCLINATION><RA_OF_ASC_NODE>237.0680</RA_OF_ASC_NODE><ARG_OF_PERICENTER>249.8247</ARG_OF_PERICENTER><MEAN_ANOMALY>188.8718</MEAN_ANOMALY></meanElements><tleParameters><EPHEMERIS_TYPE>0</EPHEMERIS_TYPE><CLASSIFICATION_TYPE>U</CLASSIFICATION_TYPE><NORAD_CAT_ID>33061</NORAD_CAT_ID><ELEMENT_SET_NO>999</ELEMENT_SET_NO><REV_AT_EPOCH>87205</REV_AT_EPOCH><BSTAR>.10656E-2</BSTAR><MEAN_MOTION_DOT>.7614E-4</MEAN_MOTION_DOT><MEAN_MOTION_DDOT>0</MEAN_MOTION_DDOT></tleParameters></data></segment></body></omm>
<omm id="CCSDS_OMM_VERS" version="2.0">
<header><CREATION_DATE/><ORIGINATOR/></header><body><segment><metadata><OBJECT_NAME>ORBCOMM FM29</OBJECT_NAME><OBJECT_ID>2008-031C</OBJECT_ID><CENTER_NAME>EARTH</CENTER_NAME><REF_FRAME>TEME</REF_FRAME><TIME_SYSTEM>UTC</TIME_SYSTEM><MEAN_ELEMENT_THEORY>SGP4</MEAN_ELEMENT_THEORY></metadata><data><meanElements><EPOCH>2024-09-05T08:30:51.243264</EPOCH><MEAN_MOTION>14.78187068</MEAN_MOTION><ECCENTRICITY>.0006431</ECCENTRICITY><INCLINATION>48.4376</INCLINATION><RA_OF_ASC_NODE>245.0801</RA_OF_ASC_NODE><ARG_OF_PERICENTER>247.2360</ARG_OF_PERICENTER><MEAN_ANOMALY>249.7496</MEAN_ANOMALY></meanElements><tleParameters><EPHEMERIS_TYPE>0</EPHEMERIS_TYPE><CLASSIFICATION_TYPE>U</CLASSIFICATION_TYPE><NORAD_CAT_ID>33062</NORAD_CAT_ID><ELEMENT_SET_NO>999</ELEMENT_SET_NO><REV_AT_EPOCH>87196</REV_AT_EPOCH><BSTAR>.10641E-2</BSTAR><MEAN_MOTION_DOT>.7596E-4</MEAN_MOTION_DOT><MEAN_MOTION_DDOT>0</MEAN_MOTION_DDOT></tleParameters></data></segment></body></omm>
<omm id="CCSDS_OMM_VERS" version="2.0">
<header><CREATION_DATE/><ORIGINATOR/></header><body><segment><metadata><OBJECT_NAME>ORBCOMM FM39</OBJECT_NAME><OBJECT_ID>2008-031D</OBJECT_ID><CENTER_NAME>EARTH</CENTER_NAME><REF_FRAME>TEME</REF_FRAME><TIME_SYSTEM>UTC</TIME_SYSTEM><MEAN_ELEMENT_THEORY>SGP4</MEAN_ELEMENT_THEORY></metadata><data><meanElements><EPOCH>2024-09-05T12:19:56.741088</EPOCH><MEAN_MOTION>14.77072878</MEAN_MOTION><ECCENTRICITY>.0007206</ECCENTRICITY><INCLINATION>48.4389</INCLINATION><RA_OF_ASC_NODE>265.7841</RA_OF_ASC_NODE><ARG_OF_PERICENTER>222.6696</ARG_OF_PERICENTER><MEAN_ANOMALY>137.3659</MEAN_ANOMALY></meanElements><tleParameters><EPHEMERIS_TYPE>0</EPHEMERIS_TYPE><CLASSIFICATION_TYPE>U</CLASSIFICATION_TYPE><NORAD_CAT_ID>33063</NORAD_CAT_ID><ELEMENT_SET_NO>999</ELEMENT_SET_NO><REV_AT_EPOCH>87167</REV_AT_EPOCH><BSTAR>.87961E-3</BSTAR><MEAN_MOTION_DOT>.6076E-4</MEAN_MOTION_DOT><MEAN_MOTION_DDOT>0</MEAN_MOTION_DDOT></tleParameters></data></segment></body></omm>

</ndm>
